CCSDS_OMM_VERS = 2.0
CREATION_DATE  = 
ORIGINATOR     = 

OBJECT_NAME    = STARLINK-36417
OBJECT_ID      = 2026-014B
CENTER_NAME    = EARTH
REF_FRAME      = TEME
TIME_SYSTEM    = UTC
MEAN_ELEMENT_THEORY = SGP/SGP4

EPOCH          = 2026-02-12T04:31:24.089664
MEAN_MOTION    = 15.75232272
ECCENTRICITY   = .000188
INCLINATION    = 97.2837
RA_OF_ASC_NODE = 286.7814
ARG_OF_PERICENTER = 112.9736
MEAN_ANOMALY   = 247.1728

EPHEMERIS_TYPE = 0
CLASSIFICATION_TYPE = U
NORAD_CAT_ID   = 67533
ELEMENT_SET_NO = 999
REV_AT_EPOCH   = 455
BSTAR          = .15726E-2
MEAN_MOTION_DOT = .241636E-2
MEAN_MOTION_DDOT = 0

CCSDS_OMM_VERS = 2.0
CREATION_DATE  = 
ORIGINATOR     = 

OBJECT_NAME    = STARLINK-36576
OBJECT_ID      = 2026-014C
CENTER_NAME    = EARTH
REF_FRAME      = TEME
TIME_SYSTEM    = UTC
MEAN_ELEMENT_THEORY = SGP/SGP4

EPOCH          = 2026-02-12T03:56:20.418144
MEAN_MOTION    = 15.80880582
ECCENTRICITY   = .0001549
INCLINATION    = 97.2846
RA_OF_ASC_NODE = 286.8160
ARG_OF_PERICENTER = 80.0181
MEAN_ANOMALY   = 280.1261

EPHEMERIS_TYPE = 0
CLASSIFICATION_TYPE = U
NORAD_CAT_ID   = 67534
ELEMENT_SET_NO = 999
REV_AT_EPOCH   = 455
BSTAR          = .11647E-2
MEAN_MOTION_DOT = .229601E-2
MEAN_MOTION_DDOT = 0

CCSDS_OMM_VERS = 2.0
CREATION_DATE  = 
ORIGINATOR     = 

OBJECT_NAME    = STARLINK-36574
OBJECT_ID      = 2026-014D
CENTER_NAME    = EARTH
REF_FRAME      = TEME
TIME_SYSTEM    = UTC
MEAN_ELEMENT_THEORY = SGP/SGP4

EPOCH          = 2026-02-12T02:23:20.250816
MEAN_MOTION    = 15.80870984
ECCENTRICITY   = .0001991
INCLINATION    = 97.2850
RA_OF_ASC_NODE = 286.7499
ARG_OF_PERICENTER = 82.0431
MEAN_ANOMALY   = 278.1063

EPHEMERIS_TYPE = 0
CLASSIFICATION_TYPE = U
NORAD_CAT_ID   = 67535
ELEMENT_SET_NO = 999
REV_AT_EPOCH   = 454
BSTAR          = .89921E-3
MEAN_MOTION_DOT = .176067E-2
MEAN_MOTION_DDOT = 0

CCSDS_OMM_VERS = 2.0
CREATION_DATE  = 
ORIGINATOR     = 

OBJECT_NAME    = STARLINK-36572
OBJECT_ID      = 2026-014E
CENTER_NAME    = EARTH
REF_FRAME      = TEME
TIME_SYSTEM    = UTC
MEAN_ELEMENT_THEORY = SGP/SGP4

EPOCH          = 2026-02-12T04:00:03.000096
MEAN_MOTION    = 15.75244642
ECCENTRICITY   = .0001394
INCLINATION    = 97.2848
RA_OF_ASC_NODE = 286.7913
ARG_OF_PERICENTER = 107.0383
MEAN_ANOMALY   = 207.6881

EPHEMERIS_TYPE = 0
CLASSIFICATION_TYPE = U
NORAD_CAT_ID   = 67536
ELEMENT_SET_NO = 999
REV_AT_EPOCH   = 458
BSTAR          = -.67275E-3
MEAN_MOTION_DOT = -.99551E-3
MEAN_MOTION_DDOT = 0

CCSDS_OMM_VERS = 2.0
CREATION_DATE  = 
ORIGINATOR     = 

OBJECT_NAME    = STARLINK-36561
OBJECT_ID      = 2026-014F
CENTER_NAME    = EARTH
REF_FRAME      = TEME
TIME_SYSTEM    = UTC
MEAN_ELEMENT_THEORY = SGP/SGP4

EPOCH          = 2026-02-12T02:48:44.658720
MEAN_MOTION    = 15.75224147
ECCENTRICITY   = .000162
INCLINATION    = 97.2848
RA_OF_ASC_NODE = 286.7230
ARG_OF_PERICENTER = 75.9592
MEAN_ANOMALY   = 284.1854

EPHEMERIS_TYPE = 0
CLASSIFICATION_TYPE = U
NORAD_CAT_ID   = 67537
ELEMENT_SET_NO = 999
REV_AT_EPOCH   = 454
BSTAR          = .11798E-2
MEAN_MOTION_DOT = .179865E-2
MEAN_MOTION_DDOT = 0

CCSDS_OMM_VERS = 2.0
CREATION_DATE  = 
ORIGINATOR     = 

OBJECT_NAME    = STARLINK-36397
OBJECT_ID      = 2026-014G
CENTER_NAME    = EARTH
REF_FRAME      = TEME
TIME_SYSTEM    = UTC
MEAN_ELEMENT_THEORY = SGP/SGP4

EPOCH          = 2026-02-12T02:54:19.755072
MEAN_MOTION    = 15.75252066
ECCENTRICITY   = .0000963
INCLINATION    = 97.2844
RA_OF_ASC_NODE = 286.7183
ARG_OF_PERICENTER = 113.3184
MEAN_ANOMALY   = 246.8183

EPHEMERIS_TYPE = 0
CLASSIFICATION_TYPE = U
NORAD_CAT_ID   = 67538
ELEMENT_SET_NO = 999
REV_AT_EPOCH   = 454
BSTAR          = .13288E-2
MEAN_MOTION_DOT = .203399E-2
MEAN_MOTION_DDOT = 0

CCSDS_OMM_VERS = 2.0
CREATION_DATE  = 
ORIGINATOR     = 

OBJECT_NAME    = STARLINK-36573
OBJECT_ID      = 2026-014H
CENTER_NAME    = EARTH
REF_FRAME      = TEME
TIME_SYSTEM    = UTC
MEAN_ELEMENT_THEORY = SGP/SGP4

EPOCH          = 2026-02-12T02:17:25.831104
MEAN_MOTION    = 15.80901344
ECCENTRICITY   = .0001441
INCLINATION    = 97.2849
RA_OF_ASC_NODE = 286.7537
ARG_OF_PERICENTER = 62.2249
MEAN_ANOMALY   = 297.9165

EPHEMERIS_TYPE = 0
CLASSIFICATION_TYPE = U
NORAD_CAT_ID   = 67539
ELEMENT_SET_NO = 999
REV_AT_EPOCH   = 454
BSTAR          = .14815E-2
MEAN_MOTION_DOT = .294578E-2
MEAN_MOTION_DDOT = 0

CCSDS_OMM_VERS = 2.0
CREATION_DATE  = 
ORIGINATOR     = 

OBJECT_NAME    = STARLINK-36585
OBJECT_ID      = 2026-014J
CENTER_NAME    = EARTH
REF_FRAME      = TEME
TIME_SYSTEM    = UTC
MEAN_ELEMENT_THEORY = SGP/SGP4

EPOCH          = 2026-02-12T02:42:38.829888
MEAN_MOTION    = 15.75218757
ECCENTRICITY   = .0001663
INCLINATION    = 97.2855
RA_OF_ASC_NODE = 286.7271
ARG_OF_PERICENTER = 66.8208
MEAN_ANOMALY   = 293.3232

EPHEMERIS_TYPE = 0
CLASSIFICATION_TYPE = U
NORAD_CAT_ID   = 67540
ELEMENT_SET_NO = 999
REV_AT_EPOCH   = 454
BSTAR          = .11976E-2
MEAN_MOTION_DOT = .182605E-2
MEAN_MOTION_DDOT = 0

CCSDS_OMM_VERS = 2.0
CREATION_DATE  = 
ORIGINATOR     = 

OBJECT_NAME    = STARLINK-36579
OBJECT_ID      = 2026-014K
CENTER_NAME    = EARTH
REF_FRAME      = TEME
TIME_SYSTEM    = UTC
MEAN_ELEMENT_THEORY = SGP/SGP4

EPOCH          = 2026-02-12T04:00:03.000096
MEAN_MOTION    = 15.75189646
ECCENTRICITY   = .0001355
INCLINATION    = 97.2853
RA_OF_ASC_NODE = 286.8051
ARG_OF_PERICENTER = 94.3226
MEAN_ANOMALY   = 254.4141

EPHEMERIS_TYPE = 0
CLASSIFICATION_TYPE = U
NORAD_CAT_ID   = 67541
ELEMENT_SET_NO = 999
REV_AT_EPOCH   = 458
BSTAR          = .34196E-5
MEAN_MOTION_DOT = .38E-5
MEAN_MOTION_DDOT = 0

CCSDS_OMM_VERS = 2.0
CREATION_DATE  = 
ORIGINATOR     = 

OBJECT_NAME    = STARLINK-35934
OBJECT_ID      = 2026-014L
CENTER_NAME    = EARTH
REF_FRAME      = TEME
TIME_SYSTEM    = UTC
MEAN_ELEMENT_THEORY = SGP/SGP4

EPOCH          = 2026-02-12T03:43:20.690976
MEAN_MOTION    = 15.80918042
ECCENTRICITY   = .0001261
INCLINATION    = 97.2847
RA_OF_ASC_NODE = 286.8257
ARG_OF_PERICENTER = 16.8028
MEAN_ANOMALY   = 343.3282

EPHEMERIS_TYPE = 0
CLASSIFICATION_TYPE = U
NORAD_CAT_ID   = 67542
ELEMENT_SET_NO = 999
REV_AT_EPOCH   = 454
BSTAR          = .15463E-2
MEAN_MOTION_DOT = .308178E-2
MEAN_MOTION_DDOT = 0

CCSDS_OMM_VERS = 2.0
CREATION_DATE  = 
ORIGINATOR     = 

OBJECT_NAME    = STARLINK-36581
OBJECT_ID      = 2026-014M
CENTER_NAME    = EARTH
REF_FRAME      = TEME
TIME_SYSTEM    = UTC
MEAN_ELEMENT_THEORY = SGP/SGP4

EPOCH          = 2026-02-12T03:41:37.881888
MEAN_MOTION    = 15.80895284
ECCENTRICITY   = .0001316
INCLINATION    = 97.2849
RA_OF_ASC_NODE = 286.8267
ARG_OF_PERICENTER = 80.6530
MEAN_ANOMALY   = 279.4887

EPHEMERIS_TYPE = 0
CLASSIFICATION_TYPE = U
NORAD_CAT_ID   = 67543
ELEMENT_SET_NO = 999
REV_AT_EPOCH   = 455
BSTAR          = .13209E-2
MEAN_MOTION_DOT = .261546E-2
MEAN_MOTION_DDOT = 0

CCSDS_OMM_VERS = 2.0
CREATION_DATE  = 
ORIGINATOR     = 

OBJECT_NAME    = STARLINK-36565
OBJECT_ID      = 2026-014N
CENTER_NAME    = EARTH
REF_FRAME      = TEME
TIME_SYSTEM    = UTC
MEAN_ELEMENT_THEORY = SGP/SGP4

EPOCH          = 2026-02-12T03:40:06.435264
MEAN_MOTION    = 15.80881307
ECCENTRICITY   = .0001047
INCLINATION    = 97.2846
RA_OF_ASC_NODE = 286.8283
ARG_OF_PERICENTER = 85.4573
MEAN_ANOMALY   = 274.6815

EPHEMERIS_TYPE = 0
CLASSIFICATION_TYPE = U
NORAD_CAT_ID   = 67544
ELEMENT_SET_NO = 999
REV_AT_EPOCH   = 455
BSTAR          = .12499E-2
MEAN_MOTION_DOT = .246906E-2
MEAN_MOTION_DDOT = 0

CCSDS_OMM_VERS = 2.0
CREATION_DATE  = 
ORIGINATOR     = 

OBJECT_NAME    = STARLINK-36583
OBJECT_ID      = 2026-014P
CENTER_NAME    = EARTH
REF_FRAME      = TEME
TIME_SYSTEM    = UTC
MEAN_ELEMENT_THEORY = SGP/SGP4

EPOCH          = 2026-02-12T04:08:32.093952
MEAN_MOTION    = 15.75225839
ECCENTRICITY   = .0001349
INCLINATION    = 97.2852
RA_OF_ASC_NODE = 286.8005
ARG_OF_PERICENTER = 96.2764
MEAN_ANOMALY   = 263.8654

EPHEMERIS_TYPE = 0
CLASSIFICATION_TYPE = U
NORAD_CAT_ID   = 67545
ELEMENT_SET_NO = 999
REV_AT_EPOCH   = 455
BSTAR          = .10977E-2
MEAN_MOTION_DOT = .167095E-2
MEAN_MOTION_DDOT = 0

CCSDS_OMM_VERS = 2.0
CREATION_DATE  = 
ORIGINATOR     = 

OBJECT_NAME    = STARLINK-36580
OBJECT_ID      = 2026-014Q
CENTER_NAME    = EARTH
REF_FRAME      = TEME
TIME_SYSTEM    = UTC
MEAN_ELEMENT_THEORY = SGP/SGP4

EPOCH          = 2026-02-12T04:00:03.000096
MEAN_MOTION    = 15.75186453
ECCENTRICITY   = .0001741
INCLINATION    = 97.2859
RA_OF_ASC_NODE = 286.8374
ARG_OF_PERICENTER = 96.0382
MEAN_ANOMALY   = 332.6947

EPHEMERIS_TYPE = 0
CLASSIFICATION_TYPE = U
NORAD_CAT_ID   = 67546
ELEMENT_SET_NO = 999
REV_AT_EPOCH   = 458
BSTAR          = .16813E-3
MEAN_MOTION_DOT = .25018E-3
MEAN_MOTION_DDOT = 0

CCSDS_OMM_VERS = 2.0
CREATION_DATE  = 
ORIGINATOR     = 

OBJECT_NAME    = STARLINK-36584
OBJECT_ID      = 2026-014R
CENTER_NAME    = EARTH
REF_FRAME      = TEME
TIME_SYSTEM    = UTC
MEAN_ELEMENT_THEORY = SGP/SGP4

EPOCH          = 2026-02-12T03:35:12.331392
MEAN_MOTION    = 15.80862601
ECCENTRICITY   = .0001245
INCLINATION    = 97.2862
RA_OF_ASC_NODE = 286.8254
ARG_OF_PERICENTER = 134.4084
MEAN_ANOMALY   = 225.7286

EPHEMERIS_TYPE = 0
CLASSIFICATION_TYPE = U
NORAD_CAT_ID   = 67547
ELEMENT_SET_NO = 999
REV_AT_EPOCH   = 455
BSTAR          = .68619E-3
MEAN_MOTION_DOT = .13361E-2
MEAN_MOTION_DDOT = 0

